H1 CPF  1  DGF 2022 05 30 18  6501 larets     NONE      
H2   304206 5557    27944 2022 05 30 00 00 00 2022 06 06 00 00 00    30 1 1  0 0 0
H5  0.0650
H9
10 0 59730  50400.000000  0       7067053.949        213709.694        150954.901
10 0 59730  50430.000000  0       7069731.091        166159.587        -71874.813
10 0 59730  50460.000000  0       7065054.262        118445.888       -294631.321
10 0 59730  50490.000000  0       7053028.151         70648.999       -517087.834
10 0 59730  50520.000000  0       7033665.273         22849.361       -739017.908
10 0 59730  50550.000000  0       7006985.959        -24872.660       -960195.672
10 0 59730  50580.000000  0       6973018.326        -72436.889      -1180396.067
10 0 59730  50610.000000  0       6931798.241       -119763.460      -1399395.080
10 0 59730  50640.000000  0       6883369.281       -166772.929      -1616969.970
10 0 59730  50670.000000  0       6827782.683       -213386.392      -1832899.502
10 0 59730  50700.000000  0       6765097.279       -259525.594      -2046964.170
10 0 59730  50730.000000  0       6695379.435       -305113.050      -2258946.423
10 0 59730  50760.000000  0       6618702.973       -350072.147      -2468630.892
10 0 59730  50790.000000  0       6535149.085       -394327.263      -2675804.606
10 0 59730  50820.000000  0       6444806.237       -437803.869      -2880257.215
10 0 59730  50850.000000  0       6347770.075       -480428.640      -3081781.195
10 0 59730  50880.000000  0       6244143.310       -522129.561      -3280172.070
10 0 59730  50910.000000  0       6134035.603       -562836.025      -3475228.608
10 0 59730  50940.000000  0       6017563.444       -602478.939      -3666753.032
10 0 59730  50970.000000  0       5894850.015       -640990.820      -3854551.215
10 0 59730  51000.000000  0       5766025.052       -678305.892      -4038432.877
10 0 59730  51030.000000  0       5631224.703       -714360.180      -4218211.769
10 0 59730  51060.000000  0       5490591.372       -749091.597      -4393705.859
10 0 59730  51090.000000  0       5344273.566       -782440.036      -4564737.512
10 0 59730  51120.000000  0       5192425.730       -814347.452      -4731133.664
10 0 59730  51150.000000  0       5035208.081       -844757.949      -4892725.993
10 0 59730  51180.000000  0       4872786.429       -873617.857      -5049351.085
10 0 59730  51210.000000  0       4705331.999       -900875.809      -5200850.592
10 0 59730  51240.000000  0       4533021.246       -926482.817      -5347071.388
10 0 59730  51270.000000  0       4356035.661       -950392.340      -5487865.717
10 0 59730  51300.000000  0       4174561.579       -972560.357      -5623091.336
10 0 59730  51330.000000  0       3988789.971       -992945.426      -5752611.652
10 0 59730  51360.000000  0       3798916.249      -1011508.746      -5876295.851
10 0 59730  51390.000000  0       3605140.048      -1028214.214      -5994019.025
10 0 59730  51420.000000  0       3407665.019      -1043028.476      -6105662.287
10 0 59730  51450.000000  0       3206698.614      -1055920.977      -6211112.887
10 0 59730  51480.000000  0       3002451.867      -1066864.003      -6310264.317
10 0 59730  51510.000000  0       2795139.171      -1075832.725      -6403016.411
10 0 59730  51540.000000  0       2584978.053      -1082805.234      -6489275.445
10 0 59730  51570.000000  0       2372188.952      -1087762.577      -6568954.216
10 0 59730  51600.000000  0       2156994.981      -1090688.785      -6641972.132
10 0 59730  51630.000000  0       1939621.702      -1091570.905      -6708255.284
10 0 59730  51660.000000  0       1720296.892      -1090399.022      -6767736.517
10 0 59730  51690.000000  0       1499250.303      -1087166.275      -6820355.495
10 0 59730  51720.000000  0       1276713.429      -1081868.879      -6866058.755
10 0 59730  51750.000000  0       1052919.267      -1074506.129      -6904799.768
10 0 59730  51780.000000  0        828102.069      -1065080.406      -6936538.976
10 0 59730  51810.000000  0        602497.107      -1053597.182      -6961243.832
10 0 59730  51840.000000  0        376340.427      -1040065.021      -6978888.830
10 0 59730  51870.000000  0        149868.612      -1024495.566      -6989455.527
10 0 59730  51900.000000  0        -76681.460      -1006903.541      -6992932.567
10 0 59730  51930.000000  0       -303072.862       -987306.731      -6989315.700
10 0 59730  51960.000000  0       -529068.858       -965725.971      -6978607.783
10 0 59730  51990.000000  0       -754433.153       -942185.121      -6960818.786
10 0 59730  52020.000000  0       -978930.137       -916711.043      -6935965.782
10 0 59730  52050.000000  0      -1202325.122       -889333.570      -6904072.935
10 0 59730  52080.000000  0      -1424384.590       -860085.474      -6865171.481
10 0 59730  52110.000000  0      -1644876.434       -829002.428      -6819299.701
10 0 59730  52140.000000  0      -1863570.194       -796122.967      -6766502.886
10 0 59730  52170.000000  0      -2080237.301       -761488.442      -6706833.299
10 0 59730  52200.000000  0      -2294651.306       -725142.978      -6640350.127
10 0 59730  52230.000000  0      -2506588.112       -687133.414      -6567119.432
10 0 59730  52260.000000  0      -2715826.210       -647509.253      -6487214.095
10 0 59730  52290.000000  0      -2922146.910       -606322.601      -6400713.759
10 0 59730  52320.000000  0      -3125334.568       -563628.106      -6307704.756
10 0 59730  52350.000000  0      -3325176.822       -519482.888      -6208280.038
10 0 59730  52380.000000  0      -3521464.812       -473946.473      -6102539.085
10 0 59730  52410.000000  0      -3713993.413       -427080.718      -5990587.821
10 0 59730  52440.000000  0      -3902561.444       -378949.731      -5872538.511
10 0 59730  52470.000000  0      -4086971.886       -329619.793      -5748509.656
10 0 59730  52500.000000  0      -4267032.094       -279159.276      -5618625.888
10 0 59730  52530.000000  0      -4442553.999       -227638.551      -5483017.850
10 0 59730  52560.000000  0      -4613354.317       -175129.905      -5341822.077
10 0 59730  52590.000000  0      -4779254.743       -121707.447      -5195180.869
10 0 59730  52620.000000  0      -4940082.151        -67447.009      -5043242.154
10 0 59730  52650.000000  0      -5095668.781        -12426.056      -4886159.353
10 0 59730  52680.000000  0      -5245852.431         43276.425      -4724091.231
10 0 59730  52710.000000  0      -5390476.635         99580.026      -4557201.743
10 0 59730  52740.000000  0      -5529390.840        156403.024      -4385659.874
10 0 59730  52770.000000  0      -5662450.574        213662.495      -4209639.471
10 0 59730  52800.000000  0      -5789517.607        271274.422      -4029319.066
10 0 59730  52830.000000  0      -5910460.101        329153.805      -3844881.709
10 0 59730  52860.000000  0      -6025152.769        387214.777      -3656514.781
10 0 59730  52890.000000  0      -6133477.012        445370.724      -3464409.809
10 0 59730  52920.000000  0      -6235321.058        503534.403      -3268762.269
10 0 59730  52950.000000  0      -6330580.092        561618.066      -3069771.387
10 0 59730  52980.000000  0      -6419156.367        619533.577      -2867639.935
10 0 59730  53010.000000  0      -6500959.323        677192.537      -2662574.024
10 0 59730  53040.000000  0      -6575905.687        734506.408      -2454782.891
10 0 59730  53070.000000  0      -6643919.567        791386.633      -2244478.688
10 0 59730  53100.000000  0      -6704932.549        847744.765      -2031876.258
10 0 59730  53130.000000  0      -6758883.775        903492.592      -1817192.918
10 0 59730  53160.000000  0      -6805720.018        958542.264      -1600648.219
10 0 59730  53190.000000  0      -6845395.741       1012806.416      -1382463.720
10 0 59730  53220.000000  0      -6877873.152       1066198.297      -1162862.744
10 0 59730  53250.000000  0      -6903122.237       1118631.892       -942070.146
10 0 59730  53280.000000  0      -6921120.797       1170022.044       -720312.071
10 0 59730  53310.000000  0      -6931854.464       1220284.579       -497815.719
10 0 59730  53340.000000  0      -6935316.720       1269336.431       -274809.101
10 0 59730  53370.000000  0      -6931508.902       1317095.757        -51520.804
10 0 59730  53400.000000  0      -6920440.195       1363482.065        171820.256
10 0 59730  53430.000000  0      -6902127.628       1408416.327        394985.076
10 0 59730  53460.000000  0      -6876596.045       1451821.101        617744.813
10 0 59730  53490.000000  0      -6843878.075       1493620.643        839871.024
10 0 59730  53520.000000  0      -6804014.093       1533741.022       1061135.915
10 0 59730  53550.000000  0      -6757052.166       1572110.232       1281312.583
10 0 59730  53580.000000  0      -6703047.995       1608658.297       1500175.256
10 0 59730  53610.000000  0      -6642064.846       1643317.382       1717499.535
10 0 59730  53640.000000  0      -6574173.472       1676021.892       1933062.638
10 0 59730  53670.000000  0      -6499452.025       1706708.574       2146643.630
10 0 59730  53700.000000  0      -6417985.958       1735316.613       2358023.661
10 0 59730  53730.000000  0      -6329867.925       1761787.728       2566986.199
10 0 59730  53760.000000  0      -6235197.666       1786066.258       2773317.258
10 0 59730  53790.000000  0      -6134081.881       1808099.254       2976805.626
10 0 59730  53820.000000  0      -6026634.106       1827836.557       3177243.083
10 0 59730  53850.000000  0      -5912974.568       1845230.880       3374424.620
10 0 59730  53880.000000  0      -5793230.047       1860237.881       3568148.651
10 0 59730  53910.000000  0      -5667533.723       1872816.240       3758217.222
10 0 59730  53940.000000  0      -5536025.014       1882927.722       3944436.217
10 0 59730  53970.000000  0      -5398849.416       1890537.244       4126615.552
99
